,title,address,roadAddress,mapx,mapy,category,description,telephone,link
0,<b>맥도날드</b> 종로3가점,서울특별시 종로구 종로3가 10,서울특별시 종로구 종로 115,311020,552520,양식>햄버거,,,http://www.mcdonalds.co.kr/
1,<b>맥도날드</b> 대학로점,서울특별시 종로구 동숭동 1-34,서울특별시 종로구 대학로 130 맥도널드,312061,553878,양식>햄버거,,,http://www.mcdonalds.co.kr/
2,<b>맥도날드</b> 서울동묘역점,서울특별시 종로구 창신동 290,서울특별시 종로구 종로 339,313201,552784,양식>햄버거,,,
3,<b>맥도날드</b> 성균관대점,서울특별시 종로구 명륜2가 197-1,서울특별시 종로구 창경궁로 241-1 김해만치과의원,311778,553935,양식>햄버거,,,
4,<b>맥도날드</b> 안국역점,서울특별시 종로구 안국동 164,서울특별시 종로구 율곡로 45,310488,553163,양식>햄버거,,,http://www.mcdonalds.co.kr/
5,<b>맥도날드</b> 서울시청점,서울특별시 중구 을지로1가 32,서울특별시 중구 남대문로9길 51 효덕빌딩,310034,552120,양식>햄버거,,,http://www.mcdonalds.co.kr/
6,<b>맥도날드</b> 명동점,서울특별시 중구 명동1가 48-2,서울특별시 중구 명동7길 8,310485,551818,양식>햄버거,,,http://www.mcdonalds.co.kr/
7,<b>맥도날드</b> 명동2호점,서울특별시 중구 회현동3가 1-5,"서울특별시 중구 퇴계로 116-1 삼영빌딩 1,2,3층",310493,551418,양식>햄버거,,,http://www.mcdonalds.co.kr/
8,<b>맥도날드</b> 이태원점,서울특별시 용산구 이태원동 56-21,서울특별시 용산구 이태원로 142-1,310911,548461,양식>햄버거,,,http://www.mcdonalds.co.kr/
9,<b>맥도날드</b> 서울역점,서울특별시 용산구 동자동 43-205 서울역 2F,서울특별시 용산구 한강대로 405 서울역(철도역),309233,550727,양식>햄버거,,,
10,<b>맥도날드</b> 왕십리점,서울특별시 성동구 행당동 286-3,서울특별시 성동구 왕십리로 321,314816,551553,양식>햄버거,,,http://www.mcdonalds.co.kr/
11,<b>맥도날드</b> 한양대점,서울특별시 성동구 행당동 31-7,서울특별시 성동구 왕십리로 227 대혜빌딩,315548,550994,양식>햄버거,,,http://www.mcdonalds.co.kr/
12,<b>맥도날드</b> 어린이대공원점,서울특별시 광진구 화양동 212,서울특별시 광진구 광나루로 392,318296,549862,양식>햄버거,,02-461-3645,http://www.mcdonalds.co.kr/
13,<b>맥도날드</b> 구의역점,서울특별시 광진구 자양2동 216-11,서울특별시 광진구 아차산로 376 올림피아드학원,319288,548654,양식>햄버거,,,http://www.mcdonalds.co.kr/
14,<b>맥도날드</b> 장안사거리점,서울특별시 동대문구 장안동 308-4,서울특별시 동대문구 답십리로 291-1,318278,552661,양식>햄버거,,,
15,<b>맥도날드</b> 전농점,서울특별시 동대문구 전농동 295-96,서울특별시 동대문구 전농로16길 8,316972,553294,양식>햄버거,,,http://www.mcdonalds.co.kr/
16,<b>맥도날드</b> 한국외대점,서울특별시 동대문구 이문동 305-2,서울특별시 동대문구 휘경로 13,317335,555278,양식>햄버거,,,
17,<b>맥도날드</b> 중랑점,서울특별시 중랑구 상봉2동 130-166,서울특별시 중랑구 망우로 202 동성빌딩,318552,554992,양식>햄버거,,,http://www.mcdonalds.co.kr/
18,<b>맥도날드</b> 신내점,서울특별시 중랑구 신내동 666,서울특별시 중랑구 봉화산로 194 신아타운,320294,556424,양식>햄버거,,,http://www.mcdonalds.co.kr/
19,<b>맥도날드</b> 상봉E마트점,서울특별시 중랑구 망우동 506-1,서울특별시 중랑구 상봉로 118 E-마트 상봉점,320147,555344,양식>햄버거,,,http://www.mcdonalds.co.kr/
20,<b>맥도날드</b> 종암 SK점,서울특별시 성북구 종암동 10-15,서울특별시 성북구 종암로 58,315061,555273,양식>햄버거,,,
21,<b>맥도날드</b> 안암점,서울특별시 성북구 안암동5가 102-33,서울특별시 성북구 고려대로24길 42 방주빌딩,314468,554019,양식>햄버거,,,http://www.mcdonalds.co.kr/
22,<b>맥도날드</b> 삼선교점,서울특별시 성북구 동소문동1가 32-3,서울특별시 성북구 동소문로 13 일화빌딩,312554,554587,양식>햄버거,,,http://www.mcdonalds.co.kr/
23,<b>맥도날드</b> 수유점,서울특별시 강북구 번동 418-18,서울특별시 강북구 도봉로 342,314230,559963,양식>햄버거,,,http://www.mcdonalds.co.kr/
24,<b>맥도날드</b> 미아점,서울특별시 강북구 미아동 71-5,서울특별시 강북구 도봉로 48,314593,557215,양식>햄버거,,,http://www.mcdonalds.co.kr/
25,<b>맥도날드</b> 서울번동DT점,서울특별시 강북구 번동 106,서울특별시 강북구 월계로 191,315929,558085,양식>햄버거,,,http://www.mcdonalds.co.kr/
26,<b>맥도날드</b> 미아DT점,서울특별시 강북구 미아동 682-12,서울특별시 강북구 삼양로 158,313830,557772,양식>햄버거,,,http://www.mcdonalds.co.kr/
27,<b>맥도날드</b> 미아역점,서울특별시 강북구 미아동 197-5,서울특별시 강북구 도봉로 204,314243,558745,양식>햄버거,,,
28,<b>맥도날드</b> 쌍문DT점,서울특별시 도봉구 쌍문동 700,서울특별시 도봉구 도봉로 541 맥도날드 쌍문점,315248,561699,양식>햄버거,,02-907-7005,http://www.mcdonalds.co.kr
29,<b>맥도날드</b> 방학역DT,서울특별시 도봉구 도봉동 620-25,서울특별시 도봉구 도봉로 735,315800,563516,양식>햄버거,,,http://www.mcdonalds.co.kr/
30,<b>맥도날드</b> 상계DT점,서울특별시 노원구 상계동 1022,서울특별시 노원구 동일로 1612,316936,563766,양식>햄버거,,,
31,<b>맥도날드</b> 중계역점,서울특별시 노원구 상계동 763-2,서울특별시 노원구 동일로 1341 장우빌딩,317438,561082,양식>햄버거,,,
32,<b>맥도날드</b> 과학기술대점,서울특별시 노원구 공릉동 435-2,서울특별시 노원구 공릉로 231 중앙빌딩,318659,559015,양식>햄버거,,,http://www.mcdonalds.co.kr/
33,<b>맥도날드</b> 세이브존 노원점,서울특별시 노원구 하계동 284 세이브존 1층,서울특별시 노원구 한글비석로 57 세이브존,317965,559812,양식>햄버거,,,http://www.mcdonalds.co.kr/
34,<b>맥도날드</b> 중계점,"서울특별시 노원구 중계동 359-14 원광빌딩 1,2층","서울특별시 노원구 중계로 218 원광빌딩 1,2층",318674,561345,양식>햄버거,,,
35,<b>맥도날드</b> 연신내점,서울특별시 은평구 갈현2동 456-28,서울특별시 은평구 연서로 213 성보빌딩,304791,557811,양식>햄버거,,,http://www.mcdonalds.co.kr/
36,<b>맥도날드</b> 구산점,서울특별시 은평구 구산동 1-14,서울특별시 은평구 연서로 131 홍천빌딩,304560,557040,양식>햄버거,,,http://www.mcdonalds.co.kr/
37,<b>맥도날드</b> 이마트은평점,서울특별시 은평구 응암동 90-1 이마트은평점 8F,서울특별시 은평구 은평로 111 이마트은평점 8F,304824,555905,양식>햄버거,,,
38,<b>맥도날드</b>연세대점,서울특별시 서대문구 창천동 33-12,서울특별시 서대문구 연세로 33,306258,551242,양식>햄버거,,,http://www.mcdonalds.co.kr/
39,<b>맥도날드</b> 명지대점,서울특별시 서대문구 남가좌동 324-3,서울특별시 서대문구 거북골로 25,305224,553628,양식>햄버거,,,
40,<b>맥도날드</b> 홍제역점,서울특별시 서대문구 홍제동 253-11,서울특별시 서대문구 통일로 442-1,306995,554571,양식>햄버거,,,
41,<b>맥도날드</b> 홍익대점,서울특별시 마포구 동교동 162-4,서울특별시 마포구 양화로 140,304947,550874,양식>햄버거,,,http://www.mcdonalds.co.kr/
42,<b>맥도날드</b> 합정메세나폴리스점,서울특별시 마포구 서교동 490 2층,서울특별시 마포구 양화로 45 메세나폴리스,304182,550416,양식>햄버거,,,
43,<b>맥도날드</b>상암DMC점,서울특별시 마포구 상암동 1602,서울특별시 마포구 월드컵북로 400,302123,553725,양식>햄버거,,,
44,<b>맥도날드</b> 공덕점,서울특별시 마포구 도화동 559,서울특별시 마포구 마포대로 53 마포트라팰리스,307186,549339,양식>햄버거,,,http://www.mcdonalds.co.kr/
45,<b>맥도날드</b> 망원점,서울특별시 마포구 망원동 377-19,서울특별시 마포구 월드컵로 81,303874,550992,양식>햄버거,,,
46,<b>맥도날드</b> 신월DT점,서울특별시 양천구 신월동 199-3,서울특별시 양천구 남부순환로 404,296863,548338,양식>햄버거,,,http://www.mcdonalds.co.kr/
47,<b>맥도날드</b> 목동점,서울특별시 양천구 신정4동 899-6,서울특별시 양천구 목동로 221,299770,547944,양식>햄버거,,,http://www.mcdonalds.co.kr/
48,<b>맥도날드</b> 양천구청점,서울특별시 양천구 신정동 323-20,서울특별시 양천구 목동동로 71 맥도널드신정점,299682,546536,양식>햄버거,,,http://www.mcdonalds.co.kr/
49,<b>맥도날드</b> 파리공원점,서울특별시 양천구 목동 908-25,서울특별시 양천구 목동서로 45,301304,548927,양식>햄버거,,02-2654-6107,http://www.mcdonalds.co.kr/
50,<b>맥도날드</b> 신월SK DT점,서울특별시 양천구 신월동 525-1,서울특별시 양천구 남부순환로 553,297542,547031,양식>햄버거,,,
51,<b>맥도날드</b> 송정역점,서울특별시 강서구 공항동 45-38,서울특별시 강서구 공항대로 21,295038,551724,양식>햄버거,,,http://www.mcdonalds.co.kr/
52,<b>맥도날드</b> 염창DT점,서울특별시 강서구 염창동 280-11,서울특별시 강서구 공항대로71길 3 맥도날드염창점,300491,550092,양식>햄버거,,,http://www.mcdonalds.co.kr/
53,<b>맥도날드</b> 우장산DT점,서울특별시 강서구 화곡동 1026,서울특별시 강서구 강서로 216 우장산 맥도날드,297461,549851,양식>햄버거,,,http://www.mcdonalds.co.kr/
54,<b>맥도날드</b> 등촌DT점,서울특별시 강서구 등촌동 630,서울특별시 강서구 양천로 546,299455,551299,양식>햄버거,,,
55,<b>맥도날드</b> 신도림디큐브점,서울특별시 구로구 신도림동 692,서울특별시 구로구 경인로 662 디큐브시티 B2,301925,545712,양식>햄버거,,,http://www.mcdonalds.co.kr/
56,<b>맥도날드</b> 신도림테크노점,서울특별시 구로구 구로동 3-25,서울특별시 구로구 새말로 97 신도림테크노마트,302131,545552,양식>햄버거,,,http://www.mcdonalds.co.kr/
57,<b>맥도날드</b> 고척DT점,서울특별시 구로구 고척동 73-20,서울특별시 구로구 경인로 393,299706,544510,양식>햄버거,,,http://mcdonalds.co.kr/
58,<b>맥도날드</b> 구로디지털,서울특별시 구로구 구로동 197-21,서울특별시 구로구 디지털로31길 12 태평양물산,302468,543132,양식>햄버거,,,http://www.mcdonalds.co.kr/
59,<b>맥도날드</b> 가산비지니스센터점,서울특별시 금천구 가산동 371-6,서울특별시 금천구 가산디지털1로 165 가산비지니스센터,301253,542598,양식>햄버거,,,
60,<b>맥도날드</b> 가산디지털점,서울특별시 금천구 가산동 50-3 대륭포스트6차 1층 103호,서울특별시 금천구 벚꽃로 298,301443,542724,양식>햄버거,,,
61,<b>맥도날드</b> 서울시흥DT점,서울특별시 금천구 시흥동 903-4,서울특별시 금천구 시흥대로 184,303114,539279,양식>햄버거,,,http://www.mcdonalds.co.kr/
62,<b>맥도날드</b> 마리오아울렛점,서울특별시 금천구 가산동 60-22 마리오 아울렛 1관,서울특별시 금천구 디지털로 185 마리오아울렛1,301750,542381,양식>햄버거,,,
63,<b>맥도날드</b> 여의도IFC몰점,서울특별시 영등포구 여의도동 23,서울특별시 영등포구 국제금융로 10 L3층,305262,547614,양식>햄버거,,,http://www.mcdonalds.co.kr/
64,<b>맥도날드</b> 영등포점,서울특별시 영등포구 영등포동3가 10-4,서울특별시 영등포구 경인로 855,303629,546651,양식>햄버거,,,
65,<b>맥도날드</b> 보라매,서울특별시 영등포구 신길동 505,서울특별시 영등포구 여의대방로 145 세인트빌딩,304714,544792,양식>햄버거,,,
66,<b>맥도날드</b> 양평SK점,서울특별시 영등포구 양평동3가 80-2,서울특별시 영등포구 선유로 195,302391,548232,양식>햄버거,,,
67,<b>맥도날드</b> 노량진점,서울특별시 동작구 노량진동 100-1,서울특별시 동작구 노량진로 158 정진학원,306806,546233,양식>햄버거,,,http://www.mcdonalds.co.kr/
68,<b>맥도날드</b> 이수점,서울특별시 동작구 사당동 147-115,서울특별시 동작구 사당로 300 이수자이,310057,542982,양식>햄버거,,,http://www.mcdonalds.co.kr/
69,<b>맥도날드</b> 숭실대점,서울특별시 동작구 상도동 505-5,서울특별시 동작구 사당로 22 창주빌딩,307960,544179,양식>햄버거,,,http://www.mcdonalds.co.kr/
70,<b>맥도날드</b> 중앙대점,서울특별시 동작구 흑석동 221 중앙대학교 약학대학 R&D센터 지하1층,서울특별시 동작구 흑석로10다길 14,308147,545405,양식>햄버거,,,http://www.mcdonalds.co.kr/
71,<b>맥도날드</b> 신림점,서울특별시 관악구 신림동 1641-22,서울특별시 관악구 신림로 310,305581,542755,양식>햄버거,,,http://www.mcdonalds.co.kr/
72,<b>맥도날드</b> 서울교대점,서울특별시 서초구 서초동 1674-5,서울특별시 서초구 서초대로 316 하림인터내셔날오피스텔,313196,544014,양식>햄버거,,,
73,<b>맥도날드</b> 양재점,서울특별시 서초구 양재동 24-6,서울특별시 서초구 강남대로 213 삼정스포타임,314928,542678,양식>햄버거,,,http://www.mcdonalds.co.kr/
74,<b>맥도날드</b> 서초GS,서울특별시 서초구 서초동 1536-1,서울특별시 서초구 효령로49길 52,312618,543177,양식>햄버거,,,http://www.mcdonalds.co.kr/
75,<b>맥도날드</b> 방배점,서울특별시 서초구 방배1동 909-9,서울특별시 서초구 방배로 81 유경빌딩,311500,542642,양식>햄버거,,,http://www.mcdonalds.co.kr/
76,<b>맥도날드</b> 서초뱅뱅점,서울특별시 서초구 서초동 1338-20 현대렉시온 101호,서울특별시 서초구 강남대로 305 서초현대렉시온,314492,543553,양식>햄버거,,,http://www.mcdonalds.co.kr/
77,<b>맥도날드</b> 양재SKDT점,서울특별시 서초구 양재동 81,서울특별시 서초구 바우뫼로 178 양재주유소,315251,542222,양식>햄버거,,,
78,<b>맥도날드</b> 강남2호점,서울특별시 강남구 역삼동 822-2,서울특별시 강남구 테헤란로 107 비전타워,314327,544500,양식>햄버거,,,http://www.mcdonalds.co.kr/
79,<b>맥도날드</b> 삼성역점,서울특별시 강남구 삼성동 158-15 지하1층,서울특별시 강남구 삼성로92길 29 도일빌딩,316993,545551,양식>햄버거,,,http://www.mcdonalds.co.kr/
80,<b>맥도날드</b> 강남구청역점,서울특별시 강남구 논현동 242-29,서울특별시 강남구 선릉로 667 성우빌딩,315454,546453,양식>햄버거,,,http://www.mcdonalds.co.kr/
81,<b>맥도날드</b> 신사역점,서울특별시 강남구 신사동 514-15 2층,서울특별시 강남구 도산대로 123 2층,313730,546595,양식>햄버거,,,
82,<b>맥도날드</b> 청담DT,서울특별시 강남구 청담동 87-3,서울특별시 강남구 도산대로 407 맥도날드,315361,547265,양식>햄버거,,,http://mcdonalds.co.kr/
83,<b>맥도날드</b> 코엑스,서울특별시 강남구 삼성동 159,서울특별시 강남구 봉은사로 524 코엑스인터콘티넨탈서울,317288,545664,양식>햄버거,,,
84,<b>맥도날드</b> 선릉점,서울특별시 강남구 역삼동 707-27,서울특별시 강남구 테헤란로 326 역삼 아이타워,315954,545034,양식>햄버거,,,http://www.mcdonalds.co.kr/
85,<b>맥도날드</b> 한티점,서울특별시 강남구 대치동 938-22 엠프리스 빌딩,서울특별시 강남구 도곡로 409 타워엠프리스,316655,544329,양식>햄버거,,,http://www.mcdonalds.co.kr/
86,<b>맥도날드</b> 압구정CGV점,서울특별시 강남구 신사동 603-2,서울특별시 강남구 논현로 848,314360,547370,양식>햄버거,,,
87,<b>맥도날드</b> 학동역점,서울특별시 강남구 논현동 129-1,서울특별시 강남구 논현로 667 진우빌딩,314498,546166,양식>햄버거,,,
88,<b>맥도날드</b>삼성DT점,서울특별시 강남구 삼성동 113-7,서울특별시 강남구 봉은사로 432,315977,545837,양식>햄버거,,,http://www.mcdonalds.co.kr/
89,한국<b>맥도날드</b>(유한),서울특별시 강남구 논현동 242-29,서울특별시 강남구 선릉로 667,315453,546446,음식점>햄버거,,,
90,<b>맥도날드</b> 신천점,서울특별시 송파구 잠실본동 181-9,서울특별시 송파구 올림픽로 108 맥스빌딩,319113,545875,양식>햄버거,,,http://www.mcdonalds.co.kr/
91,<b>맥도날드</b> 잠실역점,서울특별시 송파구 신천동 7-25,서울특별시 송파구 송파대로 558 월드타워빌딩,320589,546260,양식>햄버거,,,
92,<b>맥도날드</b> 가락맥드라이브점,서울특별시 송파구 가락동 193-7,서울특별시 송파구 동남로 196 맥도날드,323334,543999,양식>햄버거,,,http://www.mcdonalds.co.kr/
93,<b>맥도날드</b> 석촌역점,서울특별시 송파구 송파동 84,서울특별시 송파구 백제고분로 390,321435,545254,양식>햄버거,,,
94,<b>맥도날드</b> 송파잠실DT점,서울특별시 송파구 잠실동 305-15,서울특별시 송파구 도곡로 434,318589,545094,양식>햄버거,,,http://www.mcdonalds.co.kr/
95,<b>맥도날드</b> 위례신도시점,서울특별시 송파구 장지동 896,서울특별시 송파구 위례광장로 290 위례중앙푸르지오2단지,324364,541785,양식>햄버거,,,
96,<b>맥도날드</b> 강동구청점,서울특별시 강동구 성내동 539-2,서울특별시 강동구 성내로 15 삼육빌딩,322651,547929,양식>햄버거,,,http://www.mcdonalds.co.kr/
97,<b>맥도날드</b>서울둔촌DT점,서울특별시 강동구 둔촌동 517-2,서울특별시 강동구 양재대로 1382,323948,547817,양식>햄버거,,,
98,<b>맥도날드</b> 굽은다리역DT,서울특별시 강동구 천호동 31-10,서울특별시 강동구 양재대로 1587,324475,549805,양식>햄버거,,,http://www.mcdonalds.co.kr/
99,<b>맥도날드</b> 상일동점,서울특별시 강동구 상일동 502,서울특별시 강동구 상일로6길 39 강동타워,327316,550049,양식>햄버거,,,
